{"type": "FeatureCollection", "features": [{"type": "Feature", "properties": {"norad_id": 36828, "name": "BEIDOU-2 IGSO-1 (C06)", "group": "beidou", "lat": -13.53663435136927, "lon": 154.56986742891638, "alt_km": 35918.07283476903, "timestamp": "2025-12-20T20:38:44.707823+00:00", "meta": {"OBJECT_NAME": "BEIDOU-2 IGSO-1 (C06)", "OBJECT_ID": "2010-036A", "EPOCH": "2025-12-14T21:38:21.623424", "MEAN_MOTION": 1.00275796, "ECCENTRICITY": 0.00512569, "INCLINATION": 54.2866, "RA_OF_ASC_NODE": 164.6279, "ARG_OF_PERICENTER": 215.8888, "MEAN_ANOMALY": 135.7931, "EPHEMERIS_TYPE": 0, "CLASSIFICATION_TYPE": "U", "NORAD_CAT_ID": 36828, "ELEMENT_SET_NO": 999, "REV_AT_EPOCH": 5624, "BSTAR": 0, "MEAN_MOTION_DOT": -2.4e-07, "MEAN_MOTION_DDOT": 0}, "tle": {"line1": "1 36828U 10036A   25348.90163916 -.00000024  00000+0  00000+0 0  9999", "line2": "2 36828  54.2866 164.6279 0051256 215.8888 135.7931  1.00275796 56247"}}, "geometry": {"type": "Point", "coordinates": [154.56986742891638, -13.53663435136927]}}, {"type": "Feature", "properties": {"norad_id": 37210, "name": "BEIDOU-2 G4 (C04)", "group": "beidou", "lat": 2.46709297709261, "lon": -160.60903179634082, "alt_km": 35765.920351732006, "timestamp": "2025-12-20T20:38:44.707847+00:00", "meta": {"OBJECT_NAME": "BEIDOU-2 G4 (C04)", "OBJECT_ID": "2010-057A", "EPOCH": "2025-12-20T13:59:26.739168", "MEAN_MOTION": 1.00272023, "ECCENTRICITY": 0.00104282, "INCLINATION": 3.2031, "RA_OF_ASC_NODE": 69.9094, "ARG_OF_PERICENTER": 192.8314, "MEAN_ANOMALY": 196.6191, "EPHEMERIS_TYPE": 0, "CLASSIFICATION_TYPE": "U", "NORAD_CAT_ID": 37210, "ELEMENT_SET_NO": 999, "REV_AT_EPOCH": 5550, "BSTAR": 0, "MEAN_MOTION_DOT": -9e-07, "MEAN_MOTION_DDOT": 0}, "tle": {"line1": "1 37210U 10057A   25354.58294837 -.00000090  00000+0  00000+0 0  9999", "line2": "2 37210   3.2031  69.9094 0010428 192.8314 196.6191  1.00272023 55509"}}, "geometry": {"type": "Point", "coordinates": [-160.60903179634082, 2.46709297709261]}}, {"type": "Feature", "properties": {"norad_id": 37256, "name": "BEIDOU-2 IGSO-2 (C07)", "group": "beidou", "lat": -36.56575077605784, "lon": 136.08889656740828, "alt_km": 35592.5768621956, "timestamp": "2025-12-20T20:38:44.707862+00:00", "meta": {"OBJECT_NAME": "BEIDOU-2 IGSO-2 (C07)", "OBJECT_ID": "2010-068A", "EPOCH": "2025-12-20T13:52:30.782784", "MEAN_MOTION": 1.00284035, "ECCENTRICITY": 0.00484196, "INCLINATION": 47.8716, "RA_OF_ASC_NODE": 274.0527, "ARG_OF_PERICENTER": 216.3627, "MEAN_ANOMALY": 275.0459, "EPHEMERIS_TYPE": 0, "CLASSIFICATION_TYPE": "U", "NORAD_CAT_ID": 37256, "ELEMENT_SET_NO": 999, "REV_AT_EPOCH": 5500, "BSTAR": 0, "MEAN_MOTION_DOT": -1.89e-06, "MEAN_MOTION_DDOT": 0}, "tle": {"line1": "1 37256U 10068A   25354.57813406 -.00000189  00000+0  00000+0 0  9998", "line2": "2 37256  47.8716 274.0527 0048419 216.3627 275.0459  1.00284035 55003"}}, "geometry": {"type": "Point", "coordinates": [136.08889656740828, -36.56575077605784]}}, {"type": "Feature", "properties": {"norad_id": 37384, "name": "BEIDOU-2 IGSO-3 (C08)", "group": "beidou", "lat": 58.91964754510775, "lon": 160.69480640046584, "alt_km": 35763.57199446054, "timestamp": "2025-12-20T20:38:44.707875+00:00", "meta": {"OBJECT_NAME": "BEIDOU-2 IGSO-3 (C08)", "OBJECT_ID": "2011-013A", "EPOCH": "2025-12-20T13:44:20.685696", "MEAN_MOTION": 1.00268973, "ECCENTRICITY": 0.0035383, "INCLINATION": 62.1535, "RA_OF_ASC_NODE": 41.8418, "ARG_OF_PERICENTER": 187.6388, "MEAN_ANOMALY": 173.3807, "EPHEMERIS_TYPE": 0, "CLASSIFICATION_TYPE": "U", "NORAD_CAT_ID": 37384, "ELEMENT_SET_NO": 999, "REV_AT_EPOCH": 5387, "BSTAR": 0, "MEAN_MOTION_DOT": -1.64e-06, "MEAN_MOTION_DDOT": 0}, "tle": {"line1": "1 37384U 11013A   25354.57246164 -.00000164  00000+0  00000+0 0  9995", "line2": "2 37384  62.1535  41.8418 0035383 187.6388 173.3807  1.00268973 53876"}}, "geometry": {"type": "Point", "coordinates": [160.69480640046584, 58.91964754510775]}}, {"type": "Feature", "properties": {"norad_id": 37763, "name": "BEIDOU-2 IGSO-4 (C09)", "group": "beidou", "lat": -25.222890463159956, "lon": 147.64494417323994, "alt_km": 35867.48910599476, "timestamp": "2025-12-20T20:38:44.707887+00:00", "meta": {"OBJECT_NAME": "BEIDOU-2 IGSO-4 (C09)", "OBJECT_ID": "2011-038A", "EPOCH": "2025-12-17T23:29:21.564384", "MEAN_MOTION": 1.00281312, "ECCENTRICITY": 0.01493143, "INCLINATION": 54.5836, "RA_OF_ASC_NODE": 167.2999, "ARG_OF_PERICENTER": 230.2426, "MEAN_ANOMALY": 136.1954, "EPHEMERIS_TYPE": 0, "CLASSIFICATION_TYPE": "U", "NORAD_CAT_ID": 37763, "ELEMENT_SET_NO": 999, "REV_AT_EPOCH": 5283, "BSTAR": 0, "MEAN_MOTION_DOT": 6.5e-07, "MEAN_MOTION_DDOT": 0}, "tle": {"line1": "1 37763U 11038A   25351.97872181  .00000065  00000+0  00000+0 0  9997", "line2": "2 37763  54.5836 167.2999 0149314 230.2426 136.1954  1.00281312 52838"}}, "geometry": {"type": "Point", "coordinates": [147.64494417323994, -25.222890463159956]}}, {"type": "Feature", "properties": {"norad_id": 37948, "name": "BEIDOU-2 IGSO-5 (C10)", "group": "beidou", "lat": -27.881501768345142, "lon": 122.13971429803856, "alt_km": 35323.34532776712, "timestamp": "2025-12-20T20:38:44.707899+00:00", "meta": {"OBJECT_NAME": "BEIDOU-2 IGSO-5 (C10)", "OBJECT_ID": "2011-073A", "EPOCH": "2025-12-20T15:54:30.130272", "MEAN_MOTION": 1.00289655, "ECCENTRICITY": 0.01098544, "INCLINATION": 48.0055, "RA_OF_ASC_NODE": 273.7617, "ARG_OF_PERICENTER": 222.3057, "MEAN_ANOMALY": 285.4855, "EPHEMERIS_TYPE": 0, "CLASSIFICATION_TYPE": "U", "NORAD_CAT_ID": 37948, "ELEMENT_SET_NO": 999, "REV_AT_EPOCH": 5134, "BSTAR": 0, "MEAN_MOTION_DOT": -1.52e-06, "MEAN_MOTION_DDOT": 0}, "tle": {"line1": "1 37948U 11073A   25354.66284873 -.00000152  00000+0  00000+0 0  9993", "line2": "2 37948  48.0055 273.7617 0109854 222.3057 285.4855  1.00289655 51342"}}, "geometry": {"type": "Point", "coordinates": [122.13971429803856, -27.881501768345142]}}, {"type": "Feature", "properties": {"norad_id": 38091, "name": "BEIDOU-2 G5 (C05)", "group": "beidou", "lat": 1.4712331802755885, "lon": 98.16080778102312, "alt_km": 35836.902075243706, "timestamp": "2025-12-20T20:38:44.707922+00:00", "meta": {"OBJECT_NAME": "BEIDOU-2 G5 (C05)", "OBJECT_ID": "2012-008A", "EPOCH": "2025-12-19T16:03:31.750272", "MEAN_MOTION": 1.00268606, "ECCENTRICITY": 0.0012969, "INCLINATION": 3.1258, "RA_OF_ASC_NODE": 70.6861, "ARG_OF_PERICENTER": 231.3522, "MEAN_ANOMALY": 86.1393, "EPHEMERIS_TYPE": 0, "CLASSIFICATION_TYPE": "U", "NORAD_CAT_ID": 38091, "ELEMENT_SET_NO": 999, "REV_AT_EPOCH": 5056, "BSTAR": 0, "MEAN_MOTION_DOT": 7.9e-07, "MEAN_MOTION_DDOT": 0}, "tle": {"line1": "1 38091U 12008A   25353.66911748  .00000079  00000+0  00000+0 0  9996", "line2": "2 38091   3.1258  70.6861 0012969 231.3522  86.1393  1.00268606 50560"}}, "geometry": {"type": "Point", "coordinates": [98.16080778102312, 1.4712331802755885]}}, {"type": "Feature", "properties": {"norad_id": 38250, "name": "BEIDOU-2 M3 (C11)", "group": "beidou", "lat": -31.5446474665431, "lon": -73.67816732942494, "alt_km": 21484.937391315554, "timestamp": "2025-12-20T20:38:44.707947+00:00", "meta": {"OBJECT_NAME": "BEIDOU-2 M3 (C11)", "OBJECT_ID": "2012-018A", "EPOCH": "2025-12-19T07:23:03.381792", "MEAN_MOTION": 1.86230015, "ECCENTRICITY": 0.0024195, "INCLINATION": 55.9145, "RA_OF_ASC_NODE": 310.9364, "ARG_OF_PERICENTER": 274.9131, "MEAN_ANOMALY": 84.7979, "EPHEMERIS_TYPE": 0, "CLASSIFICATION_TYPE": "U", "NORAD_CAT_ID": 38250, "ELEMENT_SET_NO": 999, "REV_AT_EPOCH": 9259, "BSTAR": 0, "MEAN_MOTION_DOT": -7.8e-07, "MEAN_MOTION_DDOT": 0}, "tle": {"line1": "1 38250U 12018A   25353.30767803 -.00000078  00000+0  00000+0 0  9996", "line2": "2 38250  55.9145 310.9364 0024195 274.9131  84.7979  1.86230015 92598"}}, "geometry": {"type": "Point", "coordinates": [-73.67816732942494, -31.5446474665431]}}, {"type": "Feature", "properties": {"norad_id": 38251, "name": "BEIDOU-2 M4 (C12)", "group": "beidou", "lat": 5.331912880683017, "lon": -46.277640003380185, "alt_km": 21526.100379288993, "timestamp": "2025-12-20T20:38:44.707961+00:00", "meta": {"OBJECT_NAME": "BEIDOU-2 M4 (C12)", "OBJECT_ID": "2012-018B", "EPOCH": "2025-12-19T05:45:13.599936", "MEAN_MOTION": 1.86229684, "ECCENTRICITY": 0.00153935, "INCLINATION": 55.8157, "RA_OF_ASC_NODE": 310.167, "ARG_OF_PERICENTER": 278.4783, "MEAN_ANOMALY": 81.3347, "EPHEMERIS_TYPE": 0, "CLASSIFICATION_TYPE": "U", "NORAD_CAT_ID": 38251, "ELEMENT_SET_NO": 999, "REV_AT_EPOCH": 9259, "BSTAR": 0, "MEAN_MOTION_DOT": -7.8e-07, "MEAN_MOTION_DDOT": 0}, "tle": {"line1": "1 38251U 12018B   25353.23974074 -.00000078  00000+0  00000+0 0  9999", "line2": "2 38251  55.8157 310.1670 0015393 278.4783  81.3347  1.86229684 92597"}}, "geometry": {"type": "Point", "coordinates": [-46.277640003380185, 5.331912880683017]}}, {"type": "Feature", "properties": {"norad_id": 38775, "name": "BEIDOU-2 M6 (C14)", "group": "beidou", "lat": -16.738000943160618, "lon": -99.66185648816497, "alt_km": 21555.88981736179, "timestamp": "2025-12-20T20:38:44.707973+00:00", "meta": {"OBJECT_NAME": "BEIDOU-2 M6 (C14)", "OBJECT_ID": "2012-050B", "EPOCH": "2025-12-19T11:42:06.639840", "MEAN_MOTION": 1.86230927, "ECCENTRICITY": 0.0011333, "INCLINATION": 56.384, "RA_OF_ASC_NODE": 68.8435, "ARG_OF_PERICENTER": 343.6526, "MEAN_ANOMALY": 16.3469, "EPHEMERIS_TYPE": 0, "CLASSIFICATION_TYPE": "U", "NORAD_CAT_ID": 38775, "ELEMENT_SET_NO": 999, "REV_AT_EPOCH": 8996, "BSTAR": 0, "MEAN_MOTION_DOT": -5.2e-07, "MEAN_MOTION_DDOT": 0}, "tle": {"line1": "1 38775U 12050B   25353.48757685 -.00000052  00000+0  00000+0 0  9992", "line2": "2 38775  56.3840  68.8435 0011333 343.6526  16.3469  1.86230927 89961"}}, "geometry": {"type": "Point", "coordinates": [-99.66185648816497, -16.738000943160618]}}]}